[Satellite]
VERSION=1.1
NAME=SHENZHOU-15
NICKNAME=SHENZHOU-15
TLE1=1 54379U 22162A   22341.45696887  .00023363  00000+0  29025-3 0  9993
TLE2=2 54379  41.4770 243.9044 0005134  36.6479 133.1510 15.59426200 91858
STATUS=0
